CCSDS_OMM_VERS = 2.0
CREATION_DATE  = 
ORIGINATOR     = 

OBJECT_NAME    = STARLINK-36565
OBJECT_ID      = 2026-014N
CENTER_NAME    = EARTH
REF_FRAME      = TEME
TIME_SYSTEM    = UTC
MEAN_ELEMENT_THEORY = SGP/SGP4

EPOCH          = 2026-02-19T13:57:05.910624
MEAN_MOTION    = 15.75314432
ECCENTRICITY   = .00028408
INCLINATION    = 97.2832
RA_OF_ASC_NODE = 294.6350
ARG_OF_PERICENTER = 95.2510
MEAN_ANOMALY   = 264.9080

EPHEMERIS_TYPE = 0
CLASSIFICATION_TYPE = U
NORAD_CAT_ID   = 67544
ELEMENT_SET_NO = 999
REV_AT_EPOCH   = 572
BSTAR          = .17314667E-2
MEAN_MOTION_DOT = .267849E-2
MEAN_MOTION_DDOT = 0

CCSDS_OMM_VERS = 2.0
CREATION_DATE  = 
ORIGINATOR     = 

OBJECT_NAME    = STARLINK-36583
OBJECT_ID      = 2026-014P
CENTER_NAME    = EARTH
REF_FRAME      = TEME
TIME_SYSTEM    = UTC
MEAN_ELEMENT_THEORY = SGP/SGP4

EPOCH          = 2026-02-18T20:13:54.207264
MEAN_MOTION    = 15.75293469
ECCENTRICITY   = .00011313
INCLINATION    = 97.2842
RA_OF_ASC_NODE = 293.8012
ARG_OF_PERICENTER = 89.7240
MEAN_ANOMALY   = 270.4154

EPHEMERIS_TYPE = 0
CLASSIFICATION_TYPE = U
NORAD_CAT_ID   = 67545
ELEMENT_SET_NO = 999
REV_AT_EPOCH   = 560
BSTAR          = .15369475E-2
MEAN_MOTION_DOT = .236639E-2
MEAN_MOTION_DDOT = 0

CCSDS_OMM_VERS = 2.0
CREATION_DATE  = 
ORIGINATOR     = 

OBJECT_NAME    = STARLINK-36580
OBJECT_ID      = 2026-014Q
CENTER_NAME    = EARTH
REF_FRAME      = TEME
TIME_SYSTEM    = UTC
MEAN_ELEMENT_THEORY = SGP/SGP4

EPOCH          = 2026-02-19T03:25:23.843712
MEAN_MOTION    = 15.75343135
ECCENTRICITY   = .00014534
INCLINATION    = 97.2832
RA_OF_ASC_NODE = 294.1595
ARG_OF_PERICENTER = 60.1929
MEAN_ANOMALY   = 299.9481

EPHEMERIS_TYPE = 0
CLASSIFICATION_TYPE = U
NORAD_CAT_ID   = 67546
ELEMENT_SET_NO = 999
REV_AT_EPOCH   = 565
BSTAR          = .23069128E-2
MEAN_MOTION_DOT = .361313E-2
MEAN_MOTION_DDOT = 0

CCSDS_OMM_VERS = 2.0
CREATION_DATE  = 
ORIGINATOR     = 

OBJECT_NAME    = STARLINK-36584
OBJECT_ID      = 2026-014R
CENTER_NAME    = EARTH
REF_FRAME      = TEME
TIME_SYSTEM    = UTC
MEAN_ELEMENT_THEORY = SGP/SGP4

EPOCH          = 2026-02-19T14:00:03.000384
MEAN_MOTION    = 15.75105743
ECCENTRICITY   = .00015222
INCLINATION    = 97.2841
RA_OF_ASC_NODE = 294.6645
ARG_OF_PERICENTER = 91.1873
MEAN_ANOMALY   = 346.5202

EPHEMERIS_TYPE = 0
CLASSIFICATION_TYPE = U
NORAD_CAT_ID   = 67547
ELEMENT_SET_NO = 999
REV_AT_EPOCH   = 577
BSTAR          = .13754585E-2
MEAN_MOTION_DOT = .209375E-2
MEAN_MOTION_DDOT = 0

CCSDS_OMM_VERS = 2.0
CREATION_DATE  = 
ORIGINATOR     = 

OBJECT_NAME    = STARLINK-36586
OBJECT_ID      = 2026-014S
CENTER_NAME    = EARTH
REF_FRAME      = TEME
TIME_SYSTEM    = UTC
MEAN_ELEMENT_THEORY = SGP/SGP4

EPOCH          = 2026-02-19T14:49:23.448864
MEAN_MOTION    = 15.80857826
ECCENTRICITY   = .00017878
INCLINATION    = 97.2832
RA_OF_ASC_NODE = 294.7386
ARG_OF_PERICENTER = 97.2879
MEAN_ANOMALY   = 262.8592

EPHEMERIS_TYPE = 0
CLASSIFICATION_TYPE = U
NORAD_CAT_ID   = 67548
ELEMENT_SET_NO = 999
REV_AT_EPOCH   = 573
BSTAR          = .20896133E-2
MEAN_MOTION_DOT = .420849E-2
MEAN_MOTION_DDOT = 0

CCSDS_OMM_VERS = 2.0
CREATION_DATE  = 
ORIGINATOR     = 

OBJECT_NAME    = STARLINK-36564
OBJECT_ID      = 2026-014T
CENTER_NAME    = EARTH
REF_FRAME      = TEME
TIME_SYSTEM    = UTC
MEAN_ELEMENT_THEORY = SGP/SGP4

EPOCH          = 2026-02-19T03:37:05.053152
MEAN_MOTION    = 15.75261063
ECCENTRICITY   = .0002257
INCLINATION    = 97.2840
RA_OF_ASC_NODE = 294.1477
ARG_OF_PERICENTER = 73.3275
MEAN_ANOMALY   = 286.8238

EPHEMERIS_TYPE = 0
CLASSIFICATION_TYPE = U
NORAD_CAT_ID   = 67549
ELEMENT_SET_NO = 999
REV_AT_EPOCH   = 559
BSTAR          = .14255E-2
MEAN_MOTION_DOT = .218704E-2
MEAN_MOTION_DDOT = 0

CCSDS_OMM_VERS = 2.0
CREATION_DATE  = 
ORIGINATOR     = 

OBJECT_NAME    = STARLINK-36563
OBJECT_ID      = 2026-014U
CENTER_NAME    = EARTH
REF_FRAME      = TEME
TIME_SYSTEM    = UTC
MEAN_ELEMENT_THEORY = SGP/SGP4

EPOCH          = 2026-02-19T03:30:58.899456
MEAN_MOTION    = 15.75249107
ECCENTRICITY   = .0001757
INCLINATION    = 97.2839
RA_OF_ASC_NODE = 294.1538
ARG_OF_PERICENTER = 115.3810
MEAN_ANOMALY   = 244.7637

EPHEMERIS_TYPE = 0
CLASSIFICATION_TYPE = U
NORAD_CAT_ID   = 67550
ELEMENT_SET_NO = 999
REV_AT_EPOCH   = 565
BSTAR          = .13418E-2
MEAN_MOTION_DOT = .205421E-2
MEAN_MOTION_DDOT = 0

CCSDS_OMM_VERS = 2.0
CREATION_DATE  = 
ORIGINATOR     = 

OBJECT_NAME    = STARLINK-36566
OBJECT_ID      = 2026-014V
CENTER_NAME    = EARTH
REF_FRAME      = TEME
TIME_SYSTEM    = UTC
MEAN_ELEMENT_THEORY = SGP/SGP4

EPOCH          = 2026-02-19T03:27:56.343168
MEAN_MOTION    = 15.75349336
ECCENTRICITY   = .00019971
INCLINATION    = 97.2829
RA_OF_ASC_NODE = 294.1559
ARG_OF_PERICENTER = 33.3094
MEAN_ANOMALY   = 326.8297

EPHEMERIS_TYPE = 0
CLASSIFICATION_TYPE = U
NORAD_CAT_ID   = 67551
ELEMENT_SET_NO = 999
REV_AT_EPOCH   = 564
BSTAR          = .22495397E-2
MEAN_MOTION_DOT = .352027E-2
MEAN_MOTION_DDOT = 0

CCSDS_OMM_VERS = 2.0
CREATION_DATE  = 
ORIGINATOR     = 

OBJECT_NAME    = STARLINK-36567
OBJECT_ID      = 2026-014W
CENTER_NAME    = EARTH
REF_FRAME      = TEME
TIME_SYSTEM    = UTC
MEAN_ELEMENT_THEORY = SGP/SGP4

EPOCH          = 2026-02-19T03:40:07.774464
MEAN_MOTION    = 15.75239600
ECCENTRICITY   = .000111
INCLINATION    = 97.2839
RA_OF_ASC_NODE = 294.1387
ARG_OF_PERICENTER = 59.8387
MEAN_ANOMALY   = 300.2988

EPHEMERIS_TYPE = 0
CLASSIFICATION_TYPE = U
NORAD_CAT_ID   = 67552
ELEMENT_SET_NO = 999
REV_AT_EPOCH   = 564
BSTAR          = .12837E-2
MEAN_MOTION_DOT = .196223E-2
MEAN_MOTION_DDOT = 0

CCSDS_OMM_VERS = 2.0
CREATION_DATE  = 
ORIGINATOR     = 

OBJECT_NAME    = STARLINK-36569
OBJECT_ID      = 2026-014X
CENTER_NAME    = EARTH
REF_FRAME      = TEME
TIME_SYSTEM    = UTC
MEAN_ELEMENT_THEORY = SGP/SGP4

EPOCH          = 2026-02-19T13:42:53.194464
MEAN_MOTION    = 15.75287225
ECCENTRICITY   = .00024104
INCLINATION    = 97.2841
RA_OF_ASC_NODE = 294.6452
ARG_OF_PERICENTER = 84.8007
MEAN_ANOMALY   = 275.3533

EPHEMERIS_TYPE = 0
CLASSIFICATION_TYPE = U
NORAD_CAT_ID   = 67553
ELEMENT_SET_NO = 999
REV_AT_EPOCH   = 571
BSTAR          = .17747952E-2
MEAN_MOTION_DOT = .274437E-2
MEAN_MOTION_DDOT = 0

CCSDS_OMM_VERS = 2.0
CREATION_DATE  = 
ORIGINATOR     = 

OBJECT_NAME    = STARLINK-36395
OBJECT_ID      = 2026-014Y
CENTER_NAME    = EARTH
REF_FRAME      = TEME
TIME_SYSTEM    = UTC
MEAN_ELEMENT_THEORY = SGP/SGP4

EPOCH          = 2026-02-19T03:31:59.798496
MEAN_MOTION    = 15.75263388
ECCENTRICITY   = .0001619
INCLINATION    = 97.2843
RA_OF_ASC_NODE = 294.1505
ARG_OF_PERICENTER = 112.1480
MEAN_ANOMALY   = 247.9958

EPHEMERIS_TYPE = 0
CLASSIFICATION_TYPE = U
NORAD_CAT_ID   = 67554
ELEMENT_SET_NO = 999
REV_AT_EPOCH   = 564
BSTAR          = .1685E-2
MEAN_MOTION_DOT = .259818E-2
MEAN_MOTION_DDOT = 0

CCSDS_OMM_VERS = 2.0
CREATION_DATE  = 
ORIGINATOR     = 

OBJECT_NAME    = STARLINK-36559
OBJECT_ID      = 2026-014Z
CENTER_NAME    = EARTH
REF_FRAME      = TEME
TIME_SYSTEM    = UTC
MEAN_ELEMENT_THEORY = SGP/SGP4

EPOCH          = 2026-02-19T11:11:26.091744
MEAN_MOTION    = 15.75250299
ECCENTRICITY   = .0001723
INCLINATION    = 97.2841
RA_OF_ASC_NODE = 294.4799
ARG_OF_PERICENTER = 101.3650
MEAN_ANOMALY   = 258.7809

EPHEMERIS_TYPE = 0
CLASSIFICATION_TYPE = U
NORAD_CAT_ID   = 67555
ELEMENT_SET_NO = 999
REV_AT_EPOCH   = 569
BSTAR          = .19135387E-2
MEAN_MOTION_DOT = .296183E-2
MEAN_MOTION_DDOT = 0

